start=new Date('2023-01-14T00:00:00.000Z').valueOf();
sats=[{"LAUNCH_DATE":"2021-01-20","COUNTRY_CODE":"US","APOAPSIS":"548.134","BSTAR":"0.00009645400000","GP_ID":"222973040","REV_AT_EPOCH":"11013","OBJECT_NAME":"STARLINK-2086","CLASSIFICATION_TYPE":"U","TLE_LINE1":"1 47370U 21005X   23013.72478701  .00001155  00000-0  96454-4 0  9998","OBJECT_TYPE":"PAYLOAD","EPOCH":"2023-01-13T17:23:41.597664","MEAN_MOTION":"15.06398092","DECAY_DATE":null,"FILE":"3743722","SITE":"AFETR","NORAD_CAT_ID":"47370","TLE_LINE2":"2 47370  53.0522 148.5131 0001320  77.4974 282.6163 15.06398092110134","MEAN_MOTION_DOT":"0.00001155","PERIOD":"95.592","OBJECT_ID":"2021-005X","INCLINATION":"53.0522","ELEMENT_SET_NO":"999","EPHEMERIS_TYPE":"0","SEMIMAJOR_AXIS":"6925.354","MEAN_MOTION_DDOT":"0.0000000000000","RA_OF_ASC_NODE":"148.5131","MEAN_ANOMALY":"282.6163","ARG_OF_PERICENTER":"77.4974","MEAN_ELEMENT_THEORY":"SGP4","PERIAPSIS":"546.305","REF_FRAME":"TEME","ECCENTRICITY":"0.00013200","TIME_SYSTEM":"UTC","CENTER_NAME":"EARTH","RCS_SIZE":"LARGE"},{"RCS_SIZE":"LARGE","CENTER_NAME":"EARTH","TIME_SYSTEM":"UTC","ECCENTRICITY":"0.00014160","MEAN_ELEMENT_THEORY":"SGP4","REF_FRAME":"TEME","PERIAPSIS":"546.224","RA_OF_ASC_NODE":"188.2793","ARG_OF_PERICENTER":"79.1086","MEAN_ANOMALY":"281.0062","ELEMENT_SET_NO":"999","EPHEMERIS_TYPE":"0","MEAN_MOTION_DDOT":"0.0000000000000","SEMIMAJOR_AXIS":"6925.339","INCLINATION":"53.0538","NORAD_CAT_ID":"47371","TLE_LINE2":"2 47371  53.0538 188.2793 0001416  79.1086 281.0062 15.06402980109575","MEAN_MOTION_DOT":"-0.00000499","PERIOD":"95.592","OBJECT_ID":"2021-005Y","FILE":"3743722","DECAY_DATE":null,"SITE":"AFETR","OBJECT_TYPE":"PAYLOAD","EPOCH":"2023-01-13T18:37:59.747808","MEAN_MOTION":"15.06402980","CLASSIFICATION_TYPE":"U","OBJECT_NAME":"STARLINK-2088","REV_AT_EPOCH":"10957","TLE_LINE1":"1 47371U 21005Y   23013.77638597 -.00000499  00000-0 -14610-4 0  9991","BSTAR":"-0.00001461000000","GP_ID":"222971295","APOAPSIS":"548.185","COUNTRY_CODE":"US","LAUNCH_DATE":"2021-01-20"},{"INCLINATION":"53.0519","NORAD_CAT_ID":"47372","PERIOD":"95.592","TLE_LINE2":"2 47372  53.0519 183.0236 0001200 100.1026 260.0098 15.06395639109657","OBJECT_ID":"2021-005Z","MEAN_MOTION_DOT":"0.00000527","DECAY_DATE":null,"FILE":"3743722","SITE":"AFETR","OBJECT_TYPE":"PAYLOAD","MEAN_MOTION":"15.06395639","EPOCH":"2023-01-13T21:41:51.230688","CLASSIFICATION_TYPE":"U","OBJECT_NAME":"STARLINK-2089","REV_AT_EPOCH":"10965","TLE_LINE1":"1 47372U 21005Z   23013.90406517  .00000527  00000-0  54248-4 0  9993","GP_ID":"222971545","BSTAR":"0.00005424800000","APOAPSIS":"548.058","LAUNCH_DATE":"2021-01-20","COUNTRY_CODE":"US","RCS_SIZE":"LARGE","CENTER_NAME":"EARTH","TIME_SYSTEM":"UTC","ECCENTRICITY":"0.00012000","PERIAPSIS":"546.396","REF_FRAME":"TEME","MEAN_ELEMENT_THEORY":"SGP4","RA_OF_ASC_NODE":"183.0236","ARG_OF_PERICENTER":"100.1026","MEAN_ANOMALY":"260.0098","ELEMENT_SET_NO":"999","MEAN_MOTION_DDOT":"0.0000000000000","SEMIMAJOR_AXIS":"6925.362","EPHEMERIS_TYPE":"0"},{"FILE":"3743722","DECAY_DATE":null,"SITE":"AFETR","OBJECT_TYPE":"PAYLOAD","MEAN_MOTION":"15.06391148","EPOCH":"2023-01-13T18:32:42.447264","INCLINATION":"53.0523","NORAD_CAT_ID":"47373","PERIOD":"95.593","TLE_LINE2":"2 47373  53.0523 188.2907 0001111  98.5273 261.5842 15.06391148109575","OBJECT_ID":"2021-005AA","MEAN_MOTION_DOT":"-0.00000494","APOAPSIS":"548.010","LAUNCH_DATE":"2021-01-20","COUNTRY_CODE":"US","REV_AT_EPOCH":"10957","CLASSIFICATION_TYPE":"U","OBJECT_NAME":"STARLINK-2092","TLE_LINE1":"1 47373U 21005AA  23013.77271351 -.00000494  00000-0 -14252-4 0  9991","GP_ID":"222972794","BSTAR":"-0.00001425200000","TIME_SYSTEM":"UTC","ECCENTRICITY":"0.00011110","RCS_SIZE":"LARGE","CENTER_NAME":"EARTH","RA_OF_ASC_NODE":"188.2907","MEAN_ANOMALY":"261.5842","ARG_OF_PERICENTER":"98.5273","ELEMENT_SET_NO":"999","SEMIMAJOR_AXIS":"6925.376","MEAN_MOTION_DDOT":"0.0000000000000","EPHEMERIS_TYPE":"0","PERIAPSIS":"546.471","REF_FRAME":"TEME","MEAN_ELEMENT_THEORY":"SGP4"},{"RCS_SIZE":"LARGE","CENTER_NAME":"EARTH","TIME_SYSTEM":"UTC","ECCENTRICITY":"0.00012860","REF_FRAME":"TEME","PERIAPSIS":"546.339","MEAN_ELEMENT_THEORY":"SGP4","RA_OF_ASC_NODE":"188.7869","ARG_OF_PERICENTER":"87.3419","MEAN_ANOMALY":"272.7717","ELEMENT_SET_NO":"999","MEAN_MOTION_DDOT":"0.0000000000000","SEMIMAJOR_AXIS":"6925.364","EPHEMERIS_TYPE":"0","INCLINATION":"53.0549","NORAD_CAT_ID":"47374","PERIOD":"95.592","TLE_LINE2":"2 47374  53.0549 188.7869 0001286  87.3419 272.7717 15.06394807109555","OBJECT_ID":"2021-005AB","MEAN_MOTION_DOT":"0.00002513","DECAY_DATE":null,"FILE":"3743722","SITE":"AFETR","OBJECT_TYPE":"PAYLOAD","MEAN_MOTION":"15.06394807","EPOCH":"2023-01-13T15:52:06.897216","OBJECT_NAME":"STARLINK-2093","CLASSIFICATION_TYPE":"U","REV_AT_EPOCH":"10955","TLE_LINE1":"1 47374U 21005AB  23013.66119094  .00002513  00000-0  18755-3 0  9998","GP_ID":"222972541","BSTAR":"0.00018755000000","APOAPSIS":"548.120","LAUNCH_DATE":"2021-01-20","COUNTRY_CODE":"US"},{"DECAY_DATE":null,"FILE":"3743722","SITE":"AFETR","OBJECT_TYPE":"PAYLOAD","MEAN_MOTION":"15.06400261","EPOCH":"2023-01-13T15:58:46.836768","INCLINATION":"53.0542","NORAD_CAT_ID":"47375","TLE_LINE2":"2 47375  53.0542 188.7623 0001263  92.1800 267.9334 15.06400261109553","PERIOD":"95.592","OBJECT_ID":"2021-005AC","MEAN_MOTION_DOT":"0.00000636","APOAPSIS":"548.087","COUNTRY_CODE":"US","LAUNCH_DATE":"2021-01-20","REV_AT_EPOCH":"10955","CLASSIFICATION_TYPE":"U","OBJECT_NAME":"STARLINK-2094","TLE_LINE1":"1 47375U 21005AC  23013.66581987  .00000636  00000-0  61591-4 0  9994","GP_ID":"222971795","BSTAR":"0.00006159100000","TIME_SYSTEM":"UTC","ECCENTRICITY":"0.00012630","RCS_SIZE":"LARGE","CENTER_NAME":"EARTH","RA_OF_ASC_NODE":"188.7623","ARG_OF_PERICENTER":"92.1800","MEAN_ANOMALY":"267.9334","ELEMENT_SET_NO":"999","MEAN_MOTION_DDOT":"0.0000000000000","SEMIMAJOR_AXIS":"6925.348","EPHEMERIS_TYPE":"0","PERIAPSIS":"546.338","REF_FRAME":"TEME","MEAN_ELEMENT_THEORY":"SGP4"},{"RA_OF_ASC_NODE":"187.8550","MEAN_ANOMALY":"270.5208","ARG_OF_PERICENTER":"89.5977","ELEMENT_SET_NO":"999","EPHEMERIS_TYPE":"0","SEMIMAJOR_AXIS":"6925.370","MEAN_MOTION_DDOT":"0.0000000000000","MEAN_ELEMENT_THEORY":"SGP4","PERIAPSIS":"546.051","REF_FRAME":"TEME","TIME_SYSTEM":"UTC","ECCENTRICITY":"0.00017100","RCS_SIZE":"LARGE","CENTER_NAME":"EARTH","APOAPSIS":"548.420","LAUNCH_DATE":"2021-01-20","COUNTRY_CODE":"US","CLASSIFICATION_TYPE":"U","OBJECT_NAME":"STARLINK-2096","REV_AT_EPOCH":"10958","TLE_LINE1":"1 47376U 21005AD  23013.86856665  .00004718  00000-0  33548-3 0  9990","BSTAR":"0.00033548000000","GP_ID":"222972045","FILE":"3743722","DECAY_DATE":null,"SITE":"AFETR","OBJECT_TYPE":"PAYLOAD","EPOCH":"2023-01-13T20:50:44.158560","MEAN_MOTION":"15.06392860","INCLINATION":"53.0537","NORAD_CAT_ID":"47376","PERIOD":"95.593","TLE_LINE2":"2 47376  53.0537 187.8550 0001710  89.5977 270.5208 15.06392860109587","OBJECT_ID":"2021-005AD","MEAN_MOTION_DOT":"0.00004718"},{"DECAY_DATE":null,"FILE":"3743722","SITE":"AFETR","OBJECT_TYPE":"PAYLOAD","EPOCH":"2023-01-13T22:05:00.769056","MEAN_MOTION":"15.06396914","INCLINATION":"53.0530","NORAD_CAT_ID":"47377","TLE_LINE2":"2 47377  53.0530 187.6228 0001556  89.1853 270.9314 15.06396914109595","PERIOD":"95.592","OBJECT_ID":"2021-005AE","MEAN_MOTION_DOT":"0.00001676","APOAPSIS":"548.301","LAUNCH_DATE":"2021-01-20","COUNTRY_CODE":"US","OBJECT_NAME":"STARLINK-2097","CLASSIFICATION_TYPE":"U","REV_AT_EPOCH":"10959","TLE_LINE1":"1 47377U 21005AE  23013.92014779  .00001676  00000-0  13141-3 0  9997","BSTAR":"0.00013141000000","GP_ID":"222972295","TIME_SYSTEM":"UTC","ECCENTRICITY":"0.00015560","RCS_SIZE":"LARGE","CENTER_NAME":"EARTH","RA_OF_ASC_NODE":"187.6228","MEAN_ANOMALY":"270.9314","ARG_OF_PERICENTER":"89.1853","ELEMENT_SET_NO":"999","EPHEMERIS_TYPE":"0","MEAN_MOTION_DDOT":"0.0000000000000","SEMIMAJOR_AXIS":"6925.358","MEAN_ELEMENT_THEORY":"SGP4","PERIAPSIS":"546.145","REF_FRAME":"TEME"},{"REF_FRAME":"TEME","PERIAPSIS":"546.192","MEAN_ELEMENT_THEORY":"SGP4","MEAN_ANOMALY":"286.7317","ARG_OF_PERICENTER":"73.3834","RA_OF_ASC_NODE":"148.8545","SEMIMAJOR_AXIS":"6925.354","MEAN_MOTION_DDOT":"0.0000000000000","EPHEMERIS_TYPE":"0","ELEMENT_SET_NO":"999","RCS_SIZE":"LARGE","CENTER_NAME":"EARTH","TIME_SYSTEM":"UTC","ECCENTRICITY":"0.00014830","TLE_LINE1":"1 47378U 21005AF  23013.64739354  .00004406  00000-0  31450-3 0  9997","OBJECT_NAME":"STARLINK-2098","CLASSIFICATION_TYPE":"U","REV_AT_EPOCH":"11011","GP_ID":"222973041","BSTAR":"0.00031450000000","APOAPSIS":"548.246","COUNTRY_CODE":"US","LAUNCH_DATE":"2021-01-20","INCLINATION":"53.0518","TLE_LINE2":"2 47378  53.0518 148.8545 0001483  73.3834 286.7317 15.06398268110118","OBJECT_ID":"2021-005AF","PERIOD":"95.592","MEAN_MOTION_DOT":"0.00004406","NORAD_CAT_ID":"47378","SITE":"AFETR","FILE":"3743722","DECAY_DATE":null,"MEAN_MOTION":"15.06398268","EPOCH":"2023-01-13T15:32:14.801856","OBJECT_TYPE":"PAYLOAD"},{"TIME_SYSTEM":"UTC","ECCENTRICITY":"0.00015460","RCS_SIZE":"LARGE","CENTER_NAME":"EARTH","MEAN_ANOMALY":"256.6469","ARG_OF_PERICENTER":"103.4692","RA_OF_ASC_NODE":"149.4183","SEMIMAJOR_AXIS":"6925.394","MEAN_MOTION_DDOT":"0.0000000000000","EPHEMERIS_TYPE":"0","ELEMENT_SET_NO":"999","PERIAPSIS":"546.189","REF_FRAME":"TEME","MEAN_ELEMENT_THEORY":"SGP4","SITE":"AFETR","FILE":"3743417","DECAY_DATE":null,"MEAN_MOTION":"15.06385022","EPOCH":"2023-01-13T12:31:46.558560","OBJECT_TYPE":"PAYLOAD","INCLINATION":"53.0533","TLE_LINE2":"2 47379  53.0533 149.4183 0001546 103.4692 256.6469 15.06385022110093","MEAN_MOTION_DOT":"-0.00000199","PERIOD":"95.593","OBJECT_ID":"2021-005AG","NORAD_CAT_ID":"47379","APOAPSIS":"548.330","LAUNCH_DATE":"2021-01-20","COUNTRY_CODE":"US","TLE_LINE1":"1 47379U 21005AG  23013.52206665 -.00000199  00000-0  55255-5 0  9996","OBJECT_NAME":"STARLINK-2099","CLASSIFICATION_TYPE":"U","REV_AT_EPOCH":"11009","GP_ID":"222940526","BSTAR":"0.00000552550000"}];
